KUIPER-00016            
1 63732U 25088J   25296.55692333 -.00001676  00000+0 -19054-3 0  9997
2 63732  51.9015 357.9946 0011626 334.9999  25.0399 14.79869362 27023
KUIPER-00018            
1 63733U 25088K   25297.16093903  .00005745  00000+0  83382-3 0  9998
2 63733  51.9021 344.1047 0012896   1.7167 358.3836 14.77145129 27278
KUIPER-00019            
1 63734U 25088L   25297.31343705  .00003965  00000+0  54889-3 0  9996
2 63734  51.9000 342.1556 0009459  14.5059 345.6173 14.79919561 27311
KUIPER-00020            
1 63735U 25088M   25297.30995921  .00006626  00000+0  89684-3 0  9997
2 63735  51.9012 346.1475 0008129 351.6470   8.4356 14.79944669 27464
KUIPER-00021            
1 63736U 25088N   25297.30779523 -.00005007  00000+0 -62823-3 0  9996
2 63736  51.9012 347.1555 0006038 357.0391   3.0534 14.79909051 27289
KUIPER-00023            
1 63737U 25088P   25297.30678512  .00003831  00000+0  53079-3 0  9997
2 63737  51.9025 348.6269 0011776   8.8400 351.2767 14.79955562 27564
KUIPER-00024            
1 63738U 25088Q   25297.30323929  .00003158  00000+0  44919-3 0  9992
2 63738  51.9036 336.0021 0004620   9.7495 350.3556 14.79353347 27860
KUIPER-00025            
1 63739U 25088R   25295.35246514  .00028349  00000+0  37231-2 0  9997
2 63739  51.9017 353.3321 0009075 344.0208  16.0467 14.80008943 27319
