<?xml version="1.0" encoding="UTF-8"?>
<ndm xmlns:xsi="http://www.w3.org/2001/XMLSchema-instance" xsi:noNamespaceSchemaLocation="https://sanaregistry.org/r/ndmxml_unqualified/ndmxml-2.0.0-master-2.0.xsd">
<omm id="CCSDS_OMM_VERS" version="2.0">
<header><CREATION_DATE/><ORIGINATOR/></header><body><segment><metadata><OBJECT_NAME>KUIPER-00016</OBJECT_NAME><OBJECT_ID>2025-088J</OBJECT_ID><CENTER_NAME>EARTH</CENTER_NAME><REF_FRAME>TEME</REF_FRAME><TIME_SYSTEM>UTC</TIME_SYSTEM><MEAN_ELEMENT_THEORY>SGP4</MEAN_ELEMENT_THEORY></metadata><data><meanElements><EPOCH>2025-10-23T13:21:58.175712</EPOCH><MEAN_MOTION>14.79869362</MEAN_MOTION><ECCENTRICITY>.0011626</ECCENTRICITY><INCLINATION>51.9015</INCLINATION><RA_OF_ASC_NODE>357.9946</RA_OF_ASC_NODE><ARG_OF_PERICENTER>334.9999</ARG_OF_PERICENTER><MEAN_ANOMALY>25.0399</MEAN_ANOMALY></meanElements><tleParameters><EPHEMERIS_TYPE>0</EPHEMERIS_TYPE><CLASSIFICATION_TYPE>U</CLASSIFICATION_TYPE><NORAD_CAT_ID>63732</NORAD_CAT_ID><ELEMENT_SET_NO>999</ELEMENT_SET_NO><REV_AT_EPOCH>2702</REV_AT_EPOCH><BSTAR>-.19054E-3</BSTAR><MEAN_MOTION_DOT>-.1676E-4</MEAN_MOTION_DOT><MEAN_MOTION_DDOT>0</MEAN_MOTION_DDOT></tleParameters></data></segment></body></omm>
<omm id="CCSDS_OMM_VERS" version="2.0">
<header><CREATION_DATE/><ORIGINATOR/></header><body><segment><metadata><OBJECT_NAME>KUIPER-00018</OBJECT_NAME><OBJECT_ID>2025-088K</OBJECT_ID><CENTER_NAME>EARTH</CENTER_NAME><REF_FRAME>TEME</REF_FRAME><TIME_SYSTEM>UTC</TIME_SYSTEM><MEAN_ELEMENT_THEORY>SGP4</MEAN_ELEMENT_THEORY></metadata><data><meanElements><EPOCH>2025-10-24T03:51:45.132192</EPOCH><MEAN_MOTION>14.77145129</MEAN_MOTION><ECCENTRICITY>.00128966</ECCENTRICITY><INCLINATION>51.9021</INCLINATION><RA_OF_ASC_NODE>344.1047</RA_OF_ASC_NODE><ARG_OF_PERICENTER>1.7167</ARG_OF_PERICENTER><MEAN_ANOMALY>358.3836</MEAN_ANOMALY></meanElements><tleParameters><EPHEMERIS_TYPE>0</EPHEMERIS_TYPE><CLASSIFICATION_TYPE>U</CLASSIFICATION_TYPE><NORAD_CAT_ID>63733</NORAD_CAT_ID><ELEMENT_SET_NO>999</ELEMENT_SET_NO><REV_AT_EPOCH>2727</REV_AT_EPOCH><BSTAR>.83382286E-3</BSTAR><MEAN_MOTION_DOT>.5745E-4</MEAN_MOTION_DOT><MEAN_MOTION_DDOT>0</MEAN_MOTION_DDOT></tleParameters></data></segment></body></omm>
<omm id="CCSDS_OMM_VERS" version="2.0">
<header><CREATION_DATE/><ORIGINATOR/></header><body><segment><metadata><OBJECT_NAME>KUIPER-00019</OBJECT_NAME><OBJECT_ID>2025-088L</OBJECT_ID><CENTER_NAME>EARTH</CENTER_NAME><REF_FRAME>TEME</REF_FRAME><TIME_SYSTEM>UTC</TIME_SYSTEM><MEAN_ELEMENT_THEORY>SGP4</MEAN_ELEMENT_THEORY></metadata><data><meanElements><EPOCH>2025-10-24T07:31:20.961120</EPOCH><MEAN_MOTION>14.79919561</MEAN_MOTION><ECCENTRICITY>.00094598</ECCENTRICITY><INCLINATION>51.9000</INCLINATION><RA_OF_ASC_NODE>342.1556</RA_OF_ASC_NODE><ARG_OF_PERICENTER>14.5059</ARG_OF_PERICENTER><MEAN_ANOMALY>345.6173</MEAN_ANOMALY></meanElements><tleParameters><EPHEMERIS_TYPE>0</EPHEMERIS_TYPE><CLASSIFICATION_TYPE>U</CLASSIFICATION_TYPE><NORAD_CAT_ID>63734</NORAD_CAT_ID><ELEMENT_SET_NO>999</ELEMENT_SET_NO><REV_AT_EPOCH>2731</REV_AT_EPOCH><BSTAR>.54889154E-3</BSTAR><MEAN_MOTION_DOT>.3965E-4</MEAN_MOTION_DOT><MEAN_MOTION_DDOT>0</MEAN_MOTION_DDOT></tleParameters></data></segment></body></omm>
<omm id="CCSDS_OMM_VERS" version="2.0">
<header><CREATION_DATE/><ORIGINATOR/></header><body><segment><metadata><OBJECT_NAME>KUIPER-00020</OBJECT_NAME><OBJECT_ID>2025-088M</OBJECT_ID><CENTER_NAME>EARTH</CENTER_NAME><REF_FRAME>TEME</REF_FRAME><TIME_SYSTEM>UTC</TIME_SYSTEM><MEAN_ELEMENT_THEORY>SGP4</MEAN_ELEMENT_THEORY></metadata><data><meanElements><EPOCH>2025-10-24T07:26:20.475744</EPOCH><MEAN_MOTION>14.79944669</MEAN_MOTION><ECCENTRICITY>.00081291</ECCENTRICITY><INCLINATION>51.9012</INCLINATION><RA_OF_ASC_NODE>346.1475</RA_OF_ASC_NODE><ARG_OF_PERICENTER>351.6470</ARG_OF_PERICENTER><MEAN_ANOMALY>8.4356</MEAN_ANOMALY></meanElements><tleParameters><EPHEMERIS_TYPE>0</EPHEMERIS_TYPE><CLASSIFICATION_TYPE>U</CLASSIFICATION_TYPE><NORAD_CAT_ID>63735</NORAD_CAT_ID><ELEMENT_SET_NO>999</ELEMENT_SET_NO><REV_AT_EPOCH>2746</REV_AT_EPOCH><BSTAR>.89683608E-3</BSTAR><MEAN_MOTION_DOT>.6626E-4</MEAN_MOTION_DOT><MEAN_MOTION_DDOT>0</MEAN_MOTION_DDOT></tleParameters></data></segment></body></omm>
<omm id="CCSDS_OMM_VERS" version="2.0">
<header><CREATION_DATE/><ORIGINATOR/></header><body><segment><metadata><OBJECT_NAME>KUIPER-00021</OBJECT_NAME><OBJECT_ID>2025-088N</OBJECT_ID><CENTER_NAME>EARTH</CENTER_NAME><REF_FRAME>TEME</REF_FRAME><TIME_SYSTEM>UTC</TIME_SYSTEM><MEAN_ELEMENT_THEORY>SGP4</MEAN_ELEMENT_THEORY></metadata><data><meanElements><EPOCH>2025-10-24T07:23:13.507872</EPOCH><MEAN_MOTION>14.79909051</MEAN_MOTION><ECCENTRICITY>.00060382</ECCENTRICITY><INCLINATION>51.9012</INCLINATION><RA_OF_ASC_NODE>347.1555</RA_OF_ASC_NODE><ARG_OF_PERICENTER>357.0391</ARG_OF_PERICENTER><MEAN_ANOMALY>3.0534</MEAN_ANOMALY></meanElements><tleParameters><EPHEMERIS_TYPE>0</EPHEMERIS_TYPE><CLASSIFICATION_TYPE>U</CLASSIFICATION_TYPE><NORAD_CAT_ID>63736</NORAD_CAT_ID><ELEMENT_SET_NO>999</ELEMENT_SET_NO><REV_AT_EPOCH>2728</REV_AT_EPOCH><BSTAR>-.62823369E-3</BSTAR><MEAN_MOTION_DOT>-.5007E-4</MEAN_MOTION_DOT><MEAN_MOTION_DDOT>0</MEAN_MOTION_DDOT></tleParameters></data></segment></body></omm>
<omm id="CCSDS_OMM_VERS" version="2.0">
<header><CREATION_DATE/><ORIGINATOR/></header><body><segment><metadata><OBJECT_NAME>KUIPER-00023</OBJECT_NAME><OBJECT_ID>2025-088P</OBJECT_ID><CENTER_NAME>EARTH</CENTER_NAME><REF_FRAME>TEME</REF_FRAME><TIME_SYSTEM>UTC</TIME_SYSTEM><MEAN_ELEMENT_THEORY>SGP4</MEAN_ELEMENT_THEORY></metadata><data><meanElements><EPOCH>2025-10-24T07:21:46.234368</EPOCH><MEAN_MOTION>14.79955562</MEAN_MOTION><ECCENTRICITY>.00117762</ECCENTRICITY><INCLINATION>51.9025</INCLINATION><RA_OF_ASC_NODE>348.6269</RA_OF_ASC_NODE><ARG_OF_PERICENTER>8.8400</ARG_OF_PERICENTER><MEAN_ANOMALY>351.2767</MEAN_ANOMALY></meanElements><tleParameters><EPHEMERIS_TYPE>0</EPHEMERIS_TYPE><CLASSIFICATION_TYPE>U</CLASSIFICATION_TYPE><NORAD_CAT_ID>63737</NORAD_CAT_ID><ELEMENT_SET_NO>999</ELEMENT_SET_NO><REV_AT_EPOCH>2756</REV_AT_EPOCH><BSTAR>.53079064E-3</BSTAR><MEAN_MOTION_DOT>.3831E-4</MEAN_MOTION_DOT><MEAN_MOTION_DDOT>0</MEAN_MOTION_DDOT></tleParameters></data></segment></body></omm>
<omm id="CCSDS_OMM_VERS" version="2.0">
<header><CREATION_DATE/><ORIGINATOR/></header><body><segment><metadata><OBJECT_NAME>KUIPER-00024</OBJECT_NAME><OBJECT_ID>2025-088Q</OBJECT_ID><CENTER_NAME>EARTH</CENTER_NAME><REF_FRAME>TEME</REF_FRAME><TIME_SYSTEM>UTC</TIME_SYSTEM><MEAN_ELEMENT_THEORY>SGP4</MEAN_ELEMENT_THEORY></metadata><data><meanElements><EPOCH>2025-10-24T07:16:39.874656</EPOCH><MEAN_MOTION>14.79353347</MEAN_MOTION><ECCENTRICITY>.00046205</ECCENTRICITY><INCLINATION>51.9036</INCLINATION><RA_OF_ASC_NODE>336.0021</RA_OF_ASC_NODE><ARG_OF_PERICENTER>9.7495</ARG_OF_PERICENTER><MEAN_ANOMALY>350.3556</MEAN_ANOMALY></meanElements><tleParameters><EPHEMERIS_TYPE>0</EPHEMERIS_TYPE><CLASSIFICATION_TYPE>U</CLASSIFICATION_TYPE><NORAD_CAT_ID>63738</NORAD_CAT_ID><ELEMENT_SET_NO>999</ELEMENT_SET_NO><REV_AT_EPOCH>2786</REV_AT_EPOCH><BSTAR>.44918556E-3</BSTAR><MEAN_MOTION_DOT>.3158E-4</MEAN_MOTION_DOT><MEAN_MOTION_DDOT>0</MEAN_MOTION_DDOT></tleParameters></data></segment></body></omm>
<omm id="CCSDS_OMM_VERS" version="2.0">
<header><CREATION_DATE/><ORIGINATOR/></header><body><segment><metadata><OBJECT_NAME>KUIPER-00025</OBJECT_NAME><OBJECT_ID>2025-088R</OBJECT_ID><CENTER_NAME>EARTH</CENTER_NAME><REF_FRAME>TEME</REF_FRAME><TIME_SYSTEM>UTC</TIME_SYSTEM><MEAN_ELEMENT_THEORY>SGP4</MEAN_ELEMENT_THEORY></metadata><data><meanElements><EPOCH>2025-10-22T08:27:32.988096</EPOCH><MEAN_MOTION>14.80008943</MEAN_MOTION><ECCENTRICITY>.00090756</ECCENTRICITY><INCLINATION>51.9017</INCLINATION><RA_OF_ASC_NODE>353.3321</RA_OF_ASC_NODE><ARG_OF_PERICENTER>344.0208</ARG_OF_PERICENTER><MEAN_ANOMALY>16.0467</MEAN_ANOMALY></meanElements><tleParameters><EPHEMERIS_TYPE>0</EPHEMERIS_TYPE><CLASSIFICATION_TYPE>U</CLASSIFICATION_TYPE><NORAD_CAT_ID>63739</NORAD_CAT_ID><ELEMENT_SET_NO>999</ELEMENT_SET_NO><REV_AT_EPOCH>2731</REV_AT_EPOCH><BSTAR>.37230652E-2</BSTAR><MEAN_MOTION_DOT>.28349E-3</MEAN_MOTION_DOT><MEAN_MOTION_DDOT>0</MEAN_MOTION_DDOT></tleParameters></data></segment></body></omm>

</ndm>
